[{"OBJECT_NAME":"TIANMU-1 21","OBJECT_ID":"2023-208C","EPOCH":"2026-03-09T21:48:13.065120","MEAN_MOTION":15.33041299,"ECCENTRICITY":0.00059807,"INCLINATION":97.4378,"RA_OF_ASC_NODE":187.7048,"ARG_OF_PERICENTER":317.2488,"MEAN_ANOMALY":42.8288,"EPHEMERIS_TYPE":0,"CLASSIFICATION_TYPE":"U","NORAD_CAT_ID":58662,"ELEMENT_SET_NO":999,"REV_AT_EPOCH":12234,"BSTAR":0.00040063782,"MEAN_MOTION_DOT":0.00012722,"MEAN_MOTION_DDOT":0},{"OBJECT_NAME":"STARLINK-32834","OBJECT_ID":"2025-022X","EPOCH":"2026-03-09T10:42:14.334336","MEAN_MOTION":15.30192909,"ECCENTRICITY":0.00017091,"INCLINATION":53.1578,"RA_OF_ASC_NODE":130.6861,"ARG_OF_PERICENTER":95.1268,"MEAN_ANOMALY":264.9928,"EPHEMERIS_TYPE":0,"CLASSIFICATION_TYPE":"U","NORAD_CAT_ID":62875,"ELEMENT_SET_NO":999,"REV_AT_EPOCH":6186,"BSTAR":0.0010968473,"MEAN_MOTION_DOT":0.00032261,"MEAN_MOTION_DDOT":0}]
